{
  "type": "FeatureCollection",
  "features": [
    {
      "type": "Feature",
      "properties": {
        "norad_id": 34540,
        "name": "IRIDIUM 33 DEB",
        "group": "iridium-33-debris",
        "lat": -63.17173829176398,
        "lon": -61.97417177668297,
        "alt_km": 662.0005074195842,
        "timestamp": "2025-12-17T15:50:10.166248+00:00",
        "meta_object_name": "IRIDIUM 33 DEB",
        "meta_object_id": "1997-051JH",
        "meta_epoch": "2025-12-17T08:31:51.871008",
        "meta_mean_motion": 14.75416538,
        "meta_eccentricity": 0.00171499,
        "meta_inclination": 86.31,
        "meta_ra_of_asc_node": 305.496,
        "meta_arg_of_pericenter": 142.9258,
        "meta_mean_anomaly": 337.9932,
        "meta_ephemeris_type": 0,
        "meta_classification_type": "U",
        "meta_norad_cat_id": 34540,
        "meta_element_set_no": 999,
        "meta_rev_at_epoch": 89089,
        "meta_bstar": 0.0011947662,
        "meta_mean_motion_dot": 8.158e-05,
        "meta_mean_motion_ddot": 0,
        "tle_line1": "1 34540U 97051JH  25351.35546147  .00008158  00000+0  11948-2 0  9995",
        "tle_line2": "2 34540  86.3100 305.4960 0017149 142.9258 337.9932 14.75416538890890"
      },
      "geometry": {
        "type": "Point",
        "coordinates": [
          -61.97417177668297,
          -63.17173829176398
        ]
      }
    },
    {
      "type": "Feature",
      "properties": {
        "norad_id": 34648,
        "name": "IRIDIUM 33 DEB",
        "group": "iridium-33-debris",
        "lat": 36.761569451775124,
        "lon": -77.33755783501371,
        "alt_km": 901.3409141866614,
        "timestamp": "2025-12-17T15:50:10.166260+00:00",
        "meta_object_name": "IRIDIUM 33 DEB",
        "meta_object_id": "1997-051JZ",
        "meta_epoch": "2025-12-17T05:27:16.397568",
        "meta_mean_motion": 14.11635148,
        "meta_eccentricity": 0.01813922,
        "meta_inclination": 86.3906,
        "meta_ra_of_asc_node": 280.1344,
        "meta_arg_of_pericenter": 284.869,
        "meta_mean_anomaly": 73.2466,
        "meta_ephemeris_type": 0,
        "meta_classification_type": "U",
        "meta_norad_cat_id": 34648,
        "meta_element_set_no": 999,
        "meta_rev_at_epoch": 85024,
        "meta_bstar": 0.0057584356,
        "meta_mean_motion_dot": 0.00012245,
        "meta_mean_motion_ddot": 0,
        "tle_line1": "1 34648U 97051JZ  25351.22727312  .00012245  00000+0  57584-2 0  9993",
        "tle_line2": "2 34648  86.3906 280.1344 0181392 284.8690  73.2466 14.11635148850243"
      },
      "geometry": {
        "type": "Point",
        "coordinates": [
          -77.33755783501371,
          36.761569451775124
        ]
      }
    },
    {
      "type": "Feature",
      "properties": {
        "norad_id": 34651,
        "name": "IRIDIUM 33 DEB",
        "group": "iridium-33-debris",
        "lat": -14.164208105325335,
        "lon": 137.5440976506043,
        "alt_km": 904.4373987933004,
        "timestamp": "2025-12-17T15:50:10.166270+00:00",
        "meta_object_name": "IRIDIUM 33 DEB",
        "meta_object_id": "1997-051KC",
        "meta_epoch": "2025-12-17T04:06:52.981056",
        "meta_mean_motion": 14.25889746,
        "meta_eccentricity": 0.0142241,
        "meta_inclination": 86.2825,
        "meta_ra_of_asc_node": 138.6921,
        "meta_arg_of_pericenter": 189.8942,
        "meta_mean_anomaly": 169.9444,
        "meta_ephemeris_type": 0,
        "meta_classification_type": "U",
        "meta_norad_cat_id": 34651,
        "meta_element_set_no": 999,
        "meta_rev_at_epoch": 85959,
        "meta_bstar": 0.002474915,
        "meta_mean_motion_dot": 6.572e-05,
        "meta_mean_motion_ddot": 0,
        "tle_line1": "1 34651U 97051KC  25351.17144654  .00006572  00000+0  24749-2 0  9996",
        "tle_line2": "2 34651  86.2825 138.6921 0142241 189.8942 169.9444 14.25889746859594"
      },
      "geometry": {
        "type": "Point",
        "coordinates": [
          137.5440976506043,
          -14.164208105325335
        ]
      }
    },
    {
      "type": "Feature",
      "properties": {
        "norad_id": 34652,
        "name": "IRIDIUM 33 DEB",
        "group": "iridium-33-debris",
        "lat": -42.7896134668895,
        "lon": -25.5937992482934,
        "alt_km": 678.611144215105,
        "timestamp": "2025-12-17T15:50:10.166281+00:00",
        "meta_object_name": "IRIDIUM 33 DEB",
        "meta_object_id": "1997-051KD",
        "meta_epoch": "2025-12-17T06:27:37.254816",
        "meta_mean_motion": 14.62101018,
        "meta_eccentricity": 0.00256281,
        "meta_inclination": 86.3313,
        "meta_ra_of_asc_node": 337.985,
        "meta_arg_of_pericenter": 281.7173,
        "meta_mean_anomaly": 140.3768,
        "meta_ephemeris_type": 0,
        "meta_classification_type": "U",
        "meta_norad_cat_id": 34652,
        "meta_element_set_no": 999,
        "meta_rev_at_epoch": 88550,
        "meta_bstar": 0.00074636647,
        "meta_mean_motion_dot": 3.788e-05,
        "meta_mean_motion_ddot": 0,
        "tle_line1": "1 34652U 97051KD  25351.26918119  .00003788  00000+0  74637-3 0  9990",
        "tle_line2": "2 34652  86.3313 337.9850 0025628 281.7173 140.3768 14.62101018885502"
      },
      "geometry": {
        "type": "Point",
        "coordinates": [
          -25.5937992482934,
          -42.7896134668895
        ]
      }
    },
    {
      "type": "Feature",
      "properties": {
        "norad_id": 34690,
        "name": "IRIDIUM 33 DEB",
        "group": "iridium-33-debris",
        "lat": 56.29838947295118,
        "lon": 40.302977662241176,
        "alt_km": 698.3673763027027,
        "timestamp": "2025-12-17T15:50:10.166291+00:00",
        "meta_object_name": "IRIDIUM 33 DEB",
        "meta_object_id": "1997-051KM",
        "meta_epoch": "2025-12-17T04:19:05.271168",
        "meta_mean_motion": 14.5511228,
        "meta_eccentricity": 0.00103028,
        "meta_inclination": 86.3781,
        "meta_ra_of_asc_node": 35.062,
        "meta_arg_of_pericenter": 15.0723,
        "meta_mean_anomaly": 48.994,
        "meta_ephemeris_type": 0,
        "meta_classification_type": "U",
        "meta_norad_cat_id": 34690,
        "meta_element_set_no": 999,
        "meta_rev_at_epoch": 88159,
        "meta_bstar": 0.00032662353,
        "meta_mean_motion_dot": 1.431e-05,
        "meta_mean_motion_ddot": 0,
        "tle_line1": "1 34690U 97051KM  25351.17992212  .00001431  00000+0  32662-3 0  9993",
        "tle_line2": "2 34690  86.3781  35.0620 0010302  15.0723  48.9940 14.55112280881591"
      },
      "geometry": {
        "type": "Point",
        "coordinates": [
          40.302977662241176,
          56.29838947295118
        ]
      }
    },
    {
      "type": "Feature",
      "properties": {
        "norad_id": 34693,
        "name": "IRIDIUM 33 DEB",
        "group": "iridium-33-debris",
        "lat": -36.373713794526104,
        "lon": -61.35023542351114,
        "alt_km": 483.4363084121187,
        "timestamp": "2025-12-17T15:50:10.166302+00:00",
        "meta_object_name": "IRIDIUM 33 DEB",
        "meta_object_id": "1997-051KQ",
        "meta_epoch": "2025-12-17T03:29:01.779936",
        "meta_mean_motion": 15.28993867,
        "meta_eccentricity": 0.0012502,
        "meta_inclination": 86.3047,
        "meta_ra_of_asc_node": 301.6344,
        "meta_arg_of_pericenter": 45.3487,
        "meta_mean_anomaly": 327.2881,
        "meta_ephemeris_type": 0,
        "meta_classification_type": "U",
        "meta_norad_cat_id": 34693,
        "meta_element_set_no": 999,
        "meta_rev_at_epoch": 88982,
        "meta_bstar": 0.0037800508,
        "meta_mean_motion_dot": 0.00107985,
        "meta_mean_motion_ddot": 0,
        "tle_line1": "1 34693U 97051KQ  25351.14515949  .00107985  00000+0  37801-2 0  9991",
        "tle_line2": "2 34693  86.3047 301.6344 0012502  45.3487 327.2881 15.28993867889821"
      },
      "geometry": {
        "type": "Point",
        "coordinates": [
          -61.35023542351114,
          -36.373713794526104
        ]
      }
    },
    {
      "type": "Feature",
      "properties": {
        "norad_id": 34696,
        "name": "IRIDIUM 33 DEB",
        "group": "iridium-33-debris",
        "lat": 13.483805489463675,
        "lon": 26.15016808806423,
        "alt_km": 715.2878018528581,
        "timestamp": "2025-12-17T15:50:10.166313+00:00",
        "meta_object_name": "IRIDIUM 33 DEB",
        "meta_object_id": "1997-051KT",
        "meta_epoch": "2025-12-17T02:54:41.902848",
        "meta_mean_motion": 14.65320384,
        "meta_eccentricity": 0.00739698,
        "meta_inclination": 86.1853,
        "meta_ra_of_asc_node": 25.484,
        "meta_arg_of_pericenter": 152.7046,
        "meta_mean_anomaly": 262.5417,
        "meta_ephemeris_type": 0,
        "meta_classification_type": "U",
        "meta_norad_cat_id": 34696,
        "meta_element_set_no": 999,
        "meta_rev_at_epoch": 86737,
        "meta_bstar": 0.0033950204,
        "meta_mean_motion_dot": 0.00019128,
        "meta_mean_motion_ddot": 0,
        "tle_line1": "1 34696U 97051KT  25351.12131832  .00019128  00000+0  33950-2 0  9999",
        "tle_line2": "2 34696  86.1853  25.4840 0073969 152.7046 262.5417 14.65320384867377"
      },
      "geometry": {
        "type": "Point",
        "coordinates": [
          26.15016808806423,
          13.483805489463675
        ]
      }
    }
  ]
}